{
    "links": {
        "self": "http://www.neowsapp.com/rest/v1/neo/3843431?api_key=iIulBulltgU6a56xZRHN4H3l9WmuAYTsLGpBGhQ2"
    },
    "id": "3843431",
    "neo_reference_id": "3843431",
    "name": "(2019 OE4)",
    "designation": "2019 OE4",
    "nasa_jpl_url": "http://ssd.jpl.nasa.gov/sbdb.cgi?sstr=3843431",
    "absolute_magnitude_h": 25.6,
    "estimated_diameter": {
        "kilometers": {
            "estimated_diameter_min": 0.0201629919,
            "estimated_diameter_max": 0.0450858206
        },
        "meters": {
            "estimated_diameter_min": 20.1629919443,
            "estimated_diameter_max": 45.0858206172
        },
        "miles": {
            "estimated_diameter_min": 0.0125286985,
            "estimated_diameter_max": 0.0280150214
        },
        "feet": {
            "estimated_diameter_min": 66.1515504905,
            "estimated_diameter_max": 147.9193637137
        }
    },
    "is_potentially_hazardous_asteroid": false,
    "close_approach_data": [
        {
            "close_approach_date": "2019-07-27",
            "close_approach_date_full": "2019-Jul-27 01:02",
            "epoch_date_close_approach": 1564189320000,
            "relative_velocity": {
                "kilometers_per_second": "14.1802482808",
                "kilometers_per_hour": "51048.8938107191",
                "miles_per_hour": "31719.7973792215"
            },
            "miss_distance": {
                "astronomical": "0.0289011462",
                "lunar": "11.2425458718",
                "kilometers": "4323549.912078594",
                "miles": "2686529.3393448372"
            },
            "orbiting_body": "Earth"
        }
    ],
    "orbital_data": {
        "orbit_id": "4",
        "orbit_determination_date": "2019-12-04 07:18:39",
        "first_observation_date": "2019-07-30",
        "last_observation_date": "2019-08-04",
        "data_arc_in_days": 5,
        "observations_used": 34,
        "orbit_uncertainty": "8",
        "minimum_orbit_intersection": ".0249297",
        "jupiter_tisserand_invariant": "3.288",
        "epoch_osculation": "2458696.5",
        "eccentricity": ".6151404450039538",
        "semi_major_axis": "2.314765569948161",
        "inclination": "8.647018297838537",
        "ascending_node_longitude": "130.5319648020143",
        "orbital_period": "1286.349398791703",
        "perihelion_distance": ".8908596471704183",
        "perihelion_argument": "122.3130039446362",
        "aphelion_distance": "3.738671492725903",
        "perihelion_time": "2458654.608905451351",
        "mean_anomaly": "11.72371522984298",
        "mean_motion": ".2798617547753015",
        "equinox": "J2000",
        "orbit_class": {
            "orbit_class_type": "APO",
            "orbit_class_description": "Near-Earth asteroid orbits which cross the Earth’s orbit similar to that of 1862 Apollo",
            "orbit_class_range": "a (semi-major axis) > 1.0 AU; q (perihelion) < 1.017 AU"
        }
    },
    "is_sentry_object": false
}